{
  "type": "FeatureCollection",
  "features": [
    {
      "type": "Feature",
      "properties": {
        "norad_id": 43719,
        "name": "HYSIS",
        "group": "resource",
        "lat": 18.77089865721988,
        "lon": -128.4137241846175,
        "alt_km": 634.1364510306812,
        "timestamp": "2025-12-11T20:41:14.744941+00:00",
        "meta_object_name": "HYSIS",
        "meta_object_id": "2018-096A",
        "meta_epoch": "2025-12-11T15:05:23.363232",
        "meta_mean_motion": 14.78641119,
        "meta_eccentricity": 0.00014487,
        "meta_inclination": 98.0093,
        "meta_ra_of_asc_node": 48.6114,
        "meta_arg_of_pericenter": 58.1189,
        "meta_mean_anomaly": 302.0163,
        "meta_ephemeris_type": 0,
        "meta_classification_type": "U",
        "meta_norad_cat_id": 43719,
        "meta_element_set_no": 999,
        "meta_rev_at_epoch": 37970,
        "meta_bstar": 0.000253198,
        "meta_mean_motion_dot": 1.803e-05,
        "meta_mean_motion_ddot": 0,
        "tle_line1": "1 43719U 18096A   25345.62874263  .00001803  00000+0  25320-3 0  9991",
        "tle_line2": "2 43719  98.0093  48.6114 0001448  58.1189 302.0163 14.78641119379701"
      },
      "geometry": {
        "type": "Point",
        "coordinates": [
          -128.4137241846175,
          18.77089865721988
        ]
      }
    },
    {
      "type": "Feature",
      "properties": {
        "norad_id": 43783,
        "name": "KAZSTSAT",
        "group": "resource",
        "lat": -28.063856283437737,
        "lon": 25.08845605114531,
        "alt_km": 570.652559365567,
        "timestamp": "2025-12-11T20:41:14.744951+00:00",
        "meta_object_name": "KAZSTSAT",
        "meta_object_id": "2018-099AB",
        "meta_epoch": "2025-12-11T12:48:17.481024",
        "meta_mean_motion": 14.99347293,
        "meta_eccentricity": 0.00059574,
        "meta_inclination": 97.456,
        "meta_ra_of_asc_node": 20.7704,
        "meta_arg_of_pericenter": 335.3588,
        "meta_mean_anomaly": 24.735,
        "meta_ephemeris_type": 0,
        "meta_classification_type": "U",
        "meta_norad_cat_id": 43783,
        "meta_element_set_no": 999,
        "meta_rev_at_epoch": 38318,
        "meta_bstar": 0.00018630058,
        "meta_mean_motion_dot": 2.222e-05,
        "meta_mean_motion_ddot": 0,
        "tle_line1": "1 43783U 18099AB  25345.53353566  .00002222  00000+0  18630-3 0  9995",
        "tle_line2": "2 43783  97.4560  20.7704 0005957 335.3588  24.7350 14.99347293383184"
      },
      "geometry": {
        "type": "Point",
        "coordinates": [
          25.08845605114531,
          -28.063856283437737
        ]
      }
    },
    {
      "type": "Feature",
      "properties": {
        "norad_id": 43831,
        "name": "SAUDISAT 5A",
        "group": "resource",
        "lat": -57.86566023816949,
        "lon": 57.904041108457335,
        "alt_km": 501.9717019048685,
        "timestamp": "2025-12-11T20:41:14.744961+00:00",
        "meta_object_name": "SAUDISAT 5A",
        "meta_object_id": "2018-102A",
        "meta_epoch": "2025-12-11T14:38:51.692064",
        "meta_mean_motion": 15.25634032,
        "meta_eccentricity": 0.00117818,
        "meta_inclination": 97.3353,
        "meta_ra_of_asc_node": 45.8229,
        "meta_arg_of_pericenter": 79.8356,
        "meta_mean_anomaly": 280.4211,
        "meta_ephemeris_type": 0,
        "meta_classification_type": "U",
        "meta_norad_cat_id": 43831,
        "meta_element_set_no": 999,
        "meta_rev_at_epoch": 38705,
        "meta_bstar": 0.00037438744,
        "meta_mean_motion_dot": 9.472e-05,
        "meta_mean_motion_ddot": 0,
        "tle_line1": "1 43831U 18102A   25345.61032051  .00009472  00000+0  37439-3 0  9998",
        "tle_line2": "2 43831  97.3353  45.8229 0011781  79.8356 280.4211 15.25634032387059"
      },
      "geometry": {
        "type": "Point",
        "coordinates": [
          57.904041108457335,
          -57.86566023816949
        ]
      }
    },
    {
      "type": "Feature",
      "properties": {
        "norad_id": 43833,
        "name": "SAUDISAT 5B",
        "group": "resource",
        "lat": -7.51664921623507,
        "lon": 49.78184362348483,
        "alt_km": 491.5452257636289,
        "timestamp": "2025-12-11T20:41:14.744971+00:00",
        "meta_object_name": "SAUDISAT 5B",
        "meta_object_id": "2018-102C",
        "meta_epoch": "2025-12-11T14:25:32.051424",
        "meta_mean_motion": 15.26000583,
        "meta_eccentricity": 0.00124689,
        "meta_inclination": 97.3447,
        "meta_ra_of_asc_node": 48.5503,
        "meta_arg_of_pericenter": 81.9882,
        "meta_mean_anomaly": 278.277,
        "meta_ephemeris_type": 0,
        "meta_classification_type": "U",
        "meta_norad_cat_id": 43833,
        "meta_element_set_no": 999,
        "meta_rev_at_epoch": 38716,
        "meta_bstar": 0.00073813372,
        "meta_mean_motion_dot": 0.00018979,
        "meta_mean_motion_ddot": 0,
        "tle_line1": "1 43833U 18102C   25345.60106541  .00018979  00000+0  73813-3 0  9993",
        "tle_line2": "2 43833  97.3447  48.5503 0012468  81.9882 278.2770 15.26000583387167"
      },
      "geometry": {
        "type": "Point",
        "coordinates": [
          49.78184362348483,
          -7.51664921623507
        ]
      }
    },
    {
      "type": "Feature",
      "properties": {
        "norad_id": 44622,
        "name": "GAOFEN-10R",
        "group": "resource",
        "lat": 70.53656631697916,
        "lon": -90.17190701384533,
        "alt_km": 608.809675467066,
        "timestamp": "2025-12-11T20:41:14.744981+00:00",
        "meta_object_name": "GAOFEN-10R",
        "meta_object_id": "2019-066A",
        "meta_epoch": "2025-12-11T15:30:17.129376",
        "meta_mean_motion": 14.82786384,
        "meta_eccentricity": 0.0007927,
        "meta_inclination": 98.0275,
        "meta_ra_of_asc_node": 293.148,
        "meta_arg_of_pericenter": 45.0297,
        "meta_mean_anomaly": 315.1557,
        "meta_ephemeris_type": 0,
        "meta_classification_type": "U",
        "meta_norad_cat_id": 44622,
        "meta_element_set_no": 999,
        "meta_rev_at_epoch": 33458,
        "meta_bstar": 0.00032778261,
        "meta_mean_motion_dot": 2.597e-05,
        "meta_mean_motion_ddot": 0,
        "tle_line1": "1 44622U 19066A   25345.64603159  .00002597  00000+0  32778-3 0  9995",
        "tle_line2": "2 44622  98.0275 293.1480 0007927  45.0297 315.1557 14.82786384334581"
      },
      "geometry": {
        "type": "Point",
        "coordinates": [
          -90.17190701384533,
          70.53656631697916
        ]
      }
    },
    {
      "type": "Feature",
      "properties": {
        "norad_id": 44804,
        "name": "CARTOSAT-3",
        "group": "resource",
        "lat": 58.03976227405612,
        "lon": -122.42291632953788,
        "alt_km": 493.98458025054333,
        "timestamp": "2025-12-11T20:41:14.744991+00:00",
        "meta_object_name": "CARTOSAT-3",
        "meta_object_id": "2019-081A",
        "meta_epoch": "2025-12-11T15:24:55.589184",
        "meta_mean_motion": 15.19359774,
        "meta_eccentricity": 0.00139685,
        "meta_inclination": 97.4581,
        "meta_ra_of_asc_node": 45.2397,
        "meta_arg_of_pericenter": 90.5522,
        "meta_mean_anomaly": 269.7313,
        "meta_ephemeris_type": 0,
        "meta_classification_type": "U",
        "meta_norad_cat_id": 44804,
        "meta_element_set_no": 999,
        "meta_rev_at_epoch": 33499,
        "meta_bstar": 0.00037927983,
        "meta_mean_motion_dot": 7.973e-05,
        "meta_mean_motion_ddot": 0,
        "tle_line1": "1 44804U 19081A   25345.64231006  .00007973  00000+0  37928-3 0  9997",
        "tle_line2": "2 44804  97.4581  45.2397 0013968  90.5522 269.7313 15.19359774334996"
      },
      "geometry": {
        "type": "Point",
        "coordinates": [
          -122.42291632953788,
          58.03976227405612
        ]
      }
    },
    {
      "type": "Feature",
      "properties": {
        "norad_id": 44819,
        "name": "GAOFEN-12 01",
        "group": "resource",
        "lat": -13.975650002689319,
        "lon": -5.875733151438197,
        "alt_km": 632.126935284874,
        "timestamp": "2025-12-11T20:41:14.745001+00:00",
        "meta_object_name": "GAOFEN-12 01",
        "meta_object_id": "2019-082A",
        "meta_epoch": "2025-12-11T14:15:48.391776",
        "meta_mean_motion": 14.80658538,
        "meta_eccentricity": 0.00012541,
        "meta_inclination": 97.8126,
        "meta_ra_of_asc_node": 351.9054,
        "meta_arg_of_pericenter": 241.4365,
        "meta_mean_anomaly": 118.6721,
        "meta_ephemeris_type": 0,
        "meta_classification_type": "U",
        "meta_norad_cat_id": 44819,
        "meta_element_set_no": 999,
        "meta_rev_at_epoch": 32633,
        "meta_bstar": 0.00017003884,
        "meta_mean_motion_dot": 1.256e-05,
        "meta_mean_motion_ddot": 0,
        "tle_line1": "1 44819U 19082A   25345.59431009  .00001256  00000+0  17004-3 0  9994",
        "tle_line2": "2 44819  97.8126 351.9054 0001254 241.4365 118.6721 14.80658538326336"
      },
      "geometry": {
        "type": "Point",
        "coordinates": [
          -5.875733151438197,
          -13.975650002689319
        ]
      }
    }
  ]
}